ONEWEB-0620             
1 55161U 23004X   25291.12486033 -.00000137  00000+0 -42344-3 0  9995
2 55161  87.8819  69.2941 0001849  95.6979 264.4360 13.11418988134107
ONEWEB-0621             
1 55162U 23004Y   25291.30458763  .00000609  00000+0  16827-2 0  9993
2 55162  87.8833  69.2225 0001485  89.4461 270.6837 13.11417323134102
ONEWEB-0622             
1 55163U 23004Z   25291.30968327  .00000405  00000+0  11065-2 0  9999
2 55163  87.8819  69.2367 0002031  75.7171 284.4183 13.11415709134099
ONEWEB-0623             
1 55164U 23004AA  25291.31333200  .00000102  00000+0  22989-3 0  9999
2 55164  87.9104  53.9855 0001619  73.0297 287.1012 13.17648083135733
ONEWEB-0624             
1 55165U 23004AB  25291.30665567  .00000275  00000+0  72447-3 0  9998
2 55165  87.8956  38.6853 0001635  92.0009 268.1307 13.12915395136337
ONEWEB-0625             
1 55166U 23004AC  25291.30319604  .00000035  00000+0  56651-4 0  9991
2 55166  87.9103  53.9833 0001613 103.4363 256.6948 13.17647838135721
ONEWEB-0626             
1 55167U 23004AD  25291.29308794  .00000101  00000+0  22596-3 0  9992
2 55167  87.9103  53.9847 0002186 104.0622 256.0753 13.17648655135724
ONEWEB-0627             
1 55168U 23004AE  25291.28127892  .00000117  00000+0  26790-3 0  9997
2 55168  87.9102  53.9880 0001731  79.4487 280.6839 13.17649598135725
